{"type": "FeatureCollection", "features": [ {"type": "Feature", "properties": {"norad_id": 39122, "name": "EUTELSAT 117 WEST A", "group": "eutelsat", "lat": -0.030515385301573165, "lon": -50.829739654646204, "alt_km": 35777.00394598387, "timestamp": "2025-12-15T22:44:28.595264+00:00", "meta": {"OBJECT_NAME": "EUTELSAT 117 WEST A", "OBJECT_ID": "2013-012A", "EPOCH": "2025-12-15T08:27:38.617056", "MEAN_MOTION": 1.00272361, "ECCENTRICITY": 0.00027899, "INCLINATION": 0.0209, "RA_OF_ASC_NODE": 31.9243, "ARG_OF_PERICENTER": 236.1935, "MEAN_ANOMALY": 186.2466, "EPHEMERIS_TYPE": 0, "CLASSIFICATION_TYPE": "U", "NORAD_CAT_ID": 39122, "ELEMENT_SET_NO": 999, "REV_AT_EPOCH": 4659, "BSTAR": 0, "MEAN_MOTION_DOT": 8e-08, "MEAN_MOTION_DDOT": 0}, "tle": {"line1": "1 39122U 13012A   25349.35253029  .00000008  00000+0  00000+0 0  9992", "line2": "2 39122   0.0209  31.9243 0002789 236.1935 186.2466  1.00272361 46596"}}, "geometry": {"type": "Point", "coordinates": [-50.829739654646204, -0.030515385301573165]}}, {"type": "Feature", "properties": {"norad_id": 39163, "name": "EUTELSAT 7B", "group": "eutelsat", "lat": 0.07809819070296374, "lon": 73.01943337098504, "alt_km": 35793.165310300334, "timestamp": "2025-12-15T22:44:28.595279+00:00", "meta": {"OBJECT_NAME": "EUTELSAT 7B", "OBJECT_ID": "2013-022A", "EPOCH": "2025-12-15T00:19:38.699904", "MEAN_MOTION": 1.00273931, "ECCENTRICITY": 0.00046755, "INCLINATION": 0.0763, "RA_OF_ASC_NODE": 25.2223, "ARG_OF_PERICENTER": 294.7089, "MEAN_ANOMALY": 135.9143, "EPHEMERIS_TYPE": 0, "CLASSIFICATION_TYPE": "U", "NORAD_CAT_ID": 39163, "ELEMENT_SET_NO": 999, "REV_AT_EPOCH": 4611, "BSTAR": 0, "MEAN_MOTION_DOT": 6.9e-07, "MEAN_MOTION_DDOT": 0}, "tle": {"line1": "1 39163U 13022A   25349.01364236  .00000069  00000+0  00000+0 0  9991", "line2": "2 39163   0.0763  25.2223 0004675 294.7089 135.9143  1.00273931 46111"}}, "geometry": {"type": "Point", "coordinates": [73.01943337098504, 0.07809819070296374]}}, {"type": "Feature", "properties": {"norad_id": 39612, "name": "EXPRESS-AT1", "group": "eutelsat", "lat": 0.028923105076368964, "lon": 121.95551739103703, "alt_km": 35783.27419261701, "timestamp": "2025-12-15T22:44:28.595298+00:00", "meta": {"OBJECT_NAME": "EXPRESS-AT1", "OBJECT_ID": "2014-010A", "EPOCH": "2025-12-15T13:39:14.187744", "MEAN_MOTION": 1.00274272, "ECCENTRICITY": 5.18e-05, "INCLINATION": 0.0215, "RA_OF_ASC_NODE": 345.6169, "ARG_OF_PERICENTER": 154.3, "MEAN_ANOMALY": 205.3652, "EPHEMERIS_TYPE": 0, "CLASSIFICATION_TYPE": "U", "NORAD_CAT_ID": 39612, "ELEMENT_SET_NO": 999, "REV_AT_EPOCH": 4297, "BSTAR": 0, "MEAN_MOTION_DOT": 0, "MEAN_MOTION_DDOT": 0}, "tle": {"line1": "1 39612U 14010A   25349.56891421  .00000000  00000+0  00000+0 0  9994", "line2": "2 39612   0.0215 345.6169 0000518 154.3000 205.3652  1.00274272 42972"}}, "geometry": {"type": "Point", "coordinates": [121.95551739103703, 0.028923105076368964]}}, {"type": "Feature", "properties": {"norad_id": 39613, "name": "EXPRESS-AT2", "group": "eutelsat", "lat": -0.029500176366267054, "lon": -154.20856399843544, "alt_km": 35786.05743738383, "timestamp": "2025-12-15T22:44:28.595310+00:00", "meta": {"OBJECT_NAME": "EXPRESS-AT2", "OBJECT_ID": "2014-010B", "EPOCH": "2025-12-15T07:12:13.751424", "MEAN_MOTION": 1.00273368, "ECCENTRICITY": 0.00012024, "INCLINATION": 0.0154, "RA_OF_ASC_NODE": 289.8872, "ARG_OF_PERICENTER": 10.0403, "MEAN_ANOMALY": 32.1857, "EPHEMERIS_TYPE": 0, "CLASSIFICATION_TYPE": "U", "NORAD_CAT_ID": 39613, "ELEMENT_SET_NO": 999, "REV_AT_EPOCH": 4265, "BSTAR": 0, "MEAN_MOTION_DOT": -2.6e-06, "MEAN_MOTION_DDOT": 0}, "tle": {"line1": "1 39613U 14010B   25349.30015916 -.00000260  00000+0  00000+0 0  9993", "line2": "2 39613   0.0154 289.8872 0001202  10.0403  32.1857  1.00273368 42654"}}, "geometry": {"type": "Point", "coordinates": [-154.20856399843544, -0.029500176366267054]}}, {"type": "Feature", "properties": {"norad_id": 39773, "name": "EUTELSAT 3B", "group": "eutelsat", "lat": 0.08116252596211855, "lon": 69.02598823325447, "alt_km": 35803.71720621166, "timestamp": "2025-12-15T22:44:28.595323+00:00", "meta": {"OBJECT_NAME": "EUTELSAT 3B", "OBJECT_ID": "2014-030A", "EPOCH": "2025-12-15T06:33:17.479872", "MEAN_MOTION": 1.00271425, "ECCENTRICITY": 0.00043636, "INCLINATION": 0.0605, "RA_OF_ASC_NODE": 354.8563, "ARG_OF_PERICENTER": 236.3038, "MEAN_ANOMALY": 314.4322, "EPHEMERIS_TYPE": 0, "CLASSIFICATION_TYPE": "U", "NORAD_CAT_ID": 39773, "ELEMENT_SET_NO": 999, "REV_AT_EPOCH": 4222, "BSTAR": 0, "MEAN_MOTION_DOT": 4.1e-07, "MEAN_MOTION_DDOT": 0}, "tle": {"line1": "1 39773U 14030A   25349.27311898  .00000041  00000+0  00000+0 0  9992", "line2": "2 39773   0.0605 354.8563 0004363 236.3038 314.4322  1.00271425 42228"}}, "geometry": {"type": "Point", "coordinates": [69.02598823325447, 0.08116252596211855]}}, {"type": "Feature", "properties": {"norad_id": 40425, "name": "EUTELSAT 115 WEST B", "group": "eutelsat", "lat": 0.0038266133980441003, "lon": -48.94560211318346, "alt_km": 35786.353178193865, "timestamp": "2025-12-15T22:44:28.595335+00:00", "meta": {"OBJECT_NAME": "EUTELSAT 115 WEST B", "OBJECT_ID": "2015-010B", "EPOCH": "2025-12-15T08:27:38.617056", "MEAN_MOTION": 1.00270198, "ECCENTRICITY": 1.61e-05, "INCLINATION": 0.0426, "RA_OF_ASC_NODE": 166.1328, "ARG_OF_PERICENTER": 67.8489, "MEAN_ANOMALY": 222.2908, "EPHEMERIS_TYPE": 0, "CLASSIFICATION_TYPE": "U", "NORAD_CAT_ID": 40425, "ELEMENT_SET_NO": 999, "REV_AT_EPOCH": 3955, "BSTAR": 0, "MEAN_MOTION_DOT": -3e-08, "MEAN_MOTION_DDOT": 0}, "tle": {"line1": "1 40425U 15010B   25349.35253029 -.00000003  00000+0  00000+0 0  9996", "line2": "2 40425   0.0426 166.1328 0000161  67.8489 222.2908  1.00270198 39551"}}, "geometry": {"type": "Point", "coordinates": [-48.94560211318346, 0.0038266133980441003]}}, {"type": "Feature", "properties": {"norad_id": 40875, "name": "EUTELSAT 8 WEST B", "group": "eutelsat", "lat": 0.06842159766295938, "lon": 57.98809741519979, "alt_km": 35802.18774325056, "timestamp": "2025-12-15T22:44:28.595348+00:00", "meta": {"OBJECT_NAME": "EUTELSAT 8 WEST B", "OBJECT_ID": "2015-039B", "EPOCH": "2025-12-15T06:30:02.791296", "MEAN_MOTION": 1.00271791, "ECCENTRICITY": 0.00042616, "INCLINATION": 0.0674, "RA_OF_ASC_NODE": 13.6886, "ARG_OF_PERICENTER": 251.0572, "MEAN_ANOMALY": 268.957, "EPHEMERIS_TYPE": 0, "CLASSIFICATION_TYPE": "U", "NORAD_CAT_ID": 40875, "ELEMENT_SET_NO": 999, "REV_AT_EPOCH": 3781, "BSTAR": 0, "MEAN_MOTION_DOT": -4.5e-07, "MEAN_MOTION_DDOT": 0}, "tle": {"line1": "1 40875U 15039B   25349.27086564 -.00000045  00000+0  00000+0 0  9991", "line2": "2 40875   0.0674  13.6886 0004261 251.0572 268.9570  1.00271791 37814"}}, "geometry": {"type": "Point", "coordinates": [57.98809741519979, 0.06842159766295938]}}, {"type": "Feature", "properties": {"norad_id": 41310, "name": "EUTELSAT 9B", "group": "eutelsat", "lat": 0.02757283967863021, "lon": 74.95831665002424, "alt_km": 35804.57541040646, "timestamp": "2025-12-15T22:44:28.595360+00:00", "meta": {"OBJECT_NAME": "EUTELSAT 9B", "OBJECT_ID": "2016-005A", "EPOCH": "2025-12-15T06:34:54.825024", "MEAN_MOTION": 1.00271077, "ECCENTRICITY": 0.00045361, "INCLINATION": 0.051, "RA_OF_ASC_NODE": 67.7919, "ARG_OF_PERICENTER": 204.4187, "MEAN_ANOMALY": 279.6907, "EPHEMERIS_TYPE": 0, "CLASSIFICATION_TYPE": "U", "NORAD_CAT_ID": 41310, "ELEMENT_SET_NO": 999, "REV_AT_EPOCH": 3627, "BSTAR": 0, "MEAN_MOTION_DOT": 8.3e-07, "MEAN_MOTION_DDOT": 0}, "tle": {"line1": "1 41310U 16005A   25349.27424566  .00000083  00000+0  00000+0 0  9999", "line2": "2 41310   0.0510  67.7919 0004536 204.4187 279.6907  1.00271077 36273"}}, "geometry": {"type": "Point", "coordinates": [74.95831665002424, 0.02757283967863021]}}, {"type": "Feature", "properties": {"norad_id": 41382, "name": "EUTELSAT 65 WEST A", "group": "eutelsat", "lat": -0.011250191093460744, "lon": 0.7778742799553409, "alt_km": 35785.942767079934, "timestamp": "2025-12-15T22:44:28.595372+00:00", "meta": {"OBJECT_NAME": "EUTELSAT 65 WEST A", "OBJECT_ID": "2016-014A", "EPOCH": "2025-12-15T04:54:38.888064", "MEAN_MOTION": 1.00271238, "ECCENTRICITY": 0.00023984, "INCLINATION": 0.0541, "RA_OF_ASC_NODE": 20.4418, "ARG_OF_PERICENTER": 252.5598, "MEAN_ANOMALY": 179.5724, "EPHEMERIS_TYPE": 0, "CLASSIFICATION_TYPE": "U", "NORAD_CAT_ID": 41382, "ELEMENT_SET_NO": 999, "REV_AT_EPOCH": 3569, "BSTAR": 0, "MEAN_MOTION_DOT": -2.56e-06, "MEAN_MOTION_DDOT": 0}, "tle": {"line1": "1 41382U 16014A   25349.20461676 -.00000256  00000+0  00000+0 0  9997", "line2": "2 41382   0.0541  20.4418 0002398 252.5598 179.5724  1.00271238 35699"}}, "geometry": {"type": "Point", "coordinates": [0.7778742799553409, -0.011250191093460744]}}, {"type": "Feature", "properties": {"norad_id": 41589, "name": "EUTELSAT 117 WEST B", "group": "eutelsat", "lat": 0.005660435034804789, "lon": -51.04693700914868, "alt_km": 35786.94923858085, "timestamp": "2025-12-15T22:44:28.595384+00:00", "meta": {"OBJECT_NAME": "EUTELSAT 117 WEST B", "OBJECT_ID": "2016-038B", "EPOCH": "2025-12-14T23:08:05.366400", "MEAN_MOTION": 1.00269355, "ECCENTRICITY": 1.202e-05, "INCLINATION": 0.0103, "RA_OF_ASC_NODE": 155.4943, "ARG_OF_PERICENTER": 36.5325, "MEAN_ANOMALY": 121.8783, "EPHEMERIS_TYPE": 0, "CLASSIFICATION_TYPE": "U", "NORAD_CAT_ID": 41589, "ELEMENT_SET_NO": 999, "REV_AT_EPOCH": 3481, "BSTAR": 0, "MEAN_MOTION_DOT": 9e-08, "MEAN_MOTION_DDOT": 0}, "tle": {"line1": "1 41589U 16038B   25348.96395100  .00000009  00000+0  00000+0 0  9997", "line2": "2 41589   0.0103 155.4943 0000120  36.5325 121.8783  1.00269355 34818"}}, "geometry": {"type": "Point", "coordinates": [-51.04693700914868, 0.005660435034804789]}}]}